[{"OBJECT_NAME":"OBJECT H","OBJECT_ID":"2025-155H","EPOCH":"2026-03-09T22:09:58.611456","MEAN_MOTION":15.27590961,"ECCENTRICITY":0.00081993,"INCLINATION":97.4482,"RA_OF_ASC_NODE":37.3122,"ARG_OF_PERICENTER":152.0629,"MEAN_ANOMALY":208.1051,"EPHEMERIS_TYPE":0,"CLASSIFICATION_TYPE":"U","NORAD_CAT_ID":64883,"ELEMENT_SET_NO":999,"REV_AT_EPOCH":6559,"BSTAR":0.00050403256,"MEAN_MOTION_DOT":0.00013547,"MEAN_MOTION_DDOT":0},{"OBJECT_NAME":"STARLINK-36451","OBJECT_ID":"2026-003F","EPOCH":"2026-03-08T12:26:34.874880","MEAN_MOTION":15.27586134,"ECCENTRICITY":0.00014946,"INCLINATION":43.001,"RA_OF_ASC_NODE":233.7783,"ARG_OF_PERICENTER":268.3388,"MEAN_ANOMALY":91.7293,"EPHEMERIS_TYPE":0,"CLASSIFICATION_TYPE":"U","NORAD_CAT_ID":67339,"ELEMENT_SET_NO":999,"REV_AT_EPOCH":864,"BSTAR":0.001116091,"MEAN_MOTION_DOT":0.00030584,"MEAN_MOTION_DDOT":0}]
